[
  {
    "COMMENT": "GENERATED VIA SPACETRACK.ORG API",
    "ORIGINATOR": "18 SPCS",
    "NORAD_CAT_ID": "27386",
    "OBJECT_NAME": "ENVISAT",
    "OBJECT_TYPE": "PAYLOAD",
    "CLASSIFICATION_TYPE": "U",
    "INTLDES": "02009A",
    "EPOCH": "2023-06-19 16:05:51",
    "EPOCH_MICROSECONDS": "199008",
    "MEAN_MOTION": "14.38361286",
    "ECCENTRICITY": "0.0001332",
    "INCLINATION": "98.2307",
    "RA_OF_ASC_NODE": "140.5709",
    "ARG_OF_PERICENTER": "90.7522",
    "MEAN_ANOMALY": "82.0737",
    "EPHEMERIS_TYPE": "0",
    "ELEMENT_SET_NO": "999",
    "REV_AT_EPOCH": "11624",
    "BSTAR": "0.00009112",
    "MEAN_MOTION_DOT": "0.00000236",
    "MEAN_MOTION_DDOT": "0",
    "FILE": "3937509",
    "TLE_LINE0": "0 ENVISAT",
    "TLE_LINE1": "1 27386U 02009A   23170.67073147  .00000236  00000-0  91120-4 0  9993",
    "TLE_LINE2": "2 27386  98.2307 140.5709 0001332  90.7522  82.0737 14.38361286116240",
    "OBJECT_ID": "2002-009A",
    "OBJECT_NUMBER": "27386",
    "SEMIMAJOR_AXIS": "7142.055",
    "PERIOD": "100.114",
    "APOGEE": "764.871",
    "PERIGEE": "762.969",
    "DECAYED": "0"
  },
  {
    "COMMENT": "GENERATED VIA SPACETRACK.ORG API",
    "ORIGINATOR": "18 SPCS",
    "NORAD_CAT_ID": "27386",
    "OBJECT_NAME": "ENVISAT",
    "OBJECT_TYPE": "PAYLOAD",
    "CLASSIFICATION_TYPE": "U",
    "INTLDES": "02009A",
    "EPOCH": "2023-06-20 04:42:04",
    "EPOCH_MICROSECONDS": "794048",
    "MEAN_MOTION": "14.38361654",
    "ECCENTRICITY": "0.0001334",
    "INCLINATION": "98.2308",
    "RA_OF_ASC_NODE": "141.0745",
    "ARG_OF_PERICENTER": "90.8979",
    "MEAN_ANOMALY": "279.6662",
    "EPHEMERIS_TYPE": "0",
    "ELEMENT_SET_NO": "999",
    "REV_AT_EPOCH": "11639",
    "BSTAR": "0.000092775",
    "MEAN_MOTION_DOT": "0.00000241",
    "MEAN_MOTION_DDOT": "0",
    "FILE": "3937645",
    "TLE_LINE0": "0 ENVISAT",
    "TLE_LINE1": "1 27386U 02009A   23171.19588882  .00000241  00000-0  92775-4 0  9991",
    "TLE_LINE2": "2 27386  98.2308 141.0745 0001334  90.8979 279.6662 14.38361654116392",
    "OBJECT_ID": "2002-009A",
    "OBJECT_NUMBER": "27386",
    "SEMIMAJOR_AXIS": "7142.054",
    "PERIOD": "100.114",
    "APOGEE": "764.871",
    "PERIGEE": "762.966",
    "DECAYED": "0"
  },
  {
    "COMMENT": "GENERATED VIA SPACETRACK.ORG API",
    "ORIGINATOR": "18 SPCS",
    "NORAD_CAT_ID": "27386",
    "OBJECT_NAME": "ENVISAT",
    "OBJECT_TYPE": "PAYLOAD",
    "CLASSIFICATION_TYPE": "U",
    "INTLDES": "02009A",
    "EPOCH": "2023-06-20 10:26:50",
    "EPOCH_MICROSECONDS": "354592",
    "MEAN_MOTION": "14.38361819",
    "ECCENTRICITY": "0.0001337",
    "INCLINATION": "98.2308",
    "RA_OF_ASC_NODE": "141.304",
    "ARG_OF_PERICENTER": "90.9717",
    "MEAN_ANOMALY": "78.594",
    "EPHEMERIS_TYPE": "0",
    "ELEMENT_SET_NO": "999",
    "REV_AT_EPOCH": "11642",
    "BSTAR": "0.000092482",
    "MEAN_MOTION_DOT": "0.0000024",
    "MEAN_MOTION_DDOT": "0",
    "FILE": "3937987",
    "TLE_LINE0": "0 ENVISAT",
    "TLE_LINE1": "1 27386U 02009A   23171.43530503  .00000240  00000-0  92482-4 0  9999",
    "TLE_LINE2": "2 27386  98.2308 141.3040 0001337  90.9717  78.5940 14.38361819116429",
    "OBJECT_ID": "2002-009A",
    "OBJECT_NUMBER": "27386",
    "SEMIMAJOR_AXIS": "7142.053",
    "PERIOD": "100.114",
    "APOGEE": "764.873",
    "PERIGEE": "762.963",
    "DECAYED": "0"
  },
  {
    "COMMENT": "GENERATED VIA SPACETRACK.ORG API",
    "ORIGINATOR": "18 SPCS",
    "NORAD_CAT_ID": "27386",
    "OBJECT_NAME": "ENVISAT",
    "OBJECT_TYPE": "PAYLOAD",
    "CLASSIFICATION_TYPE": "U",
    "INTLDES": "02009A",
    "EPOCH": "2023-06-20 10:26:50",
    "EPOCH_MICROSECONDS": "354592",
    "MEAN_MOTION": "14.38361819",
    "ECCENTRICITY": "0.0001337",
    "INCLINATION": "98.2308",
    "RA_OF_ASC_NODE": "141.304",
    "ARG_OF_PERICENTER": "90.9717",
    "MEAN_ANOMALY": "78.594",
    "EPHEMERIS_TYPE": "0",
    "ELEMENT_SET_NO": "999",
    "REV_AT_EPOCH": "11635",
    "BSTAR": "0.000092482",
    "MEAN_MOTION_DOT": "0.0000024",
    "MEAN_MOTION_DDOT": "0",
    "FILE": "3938135",
    "TLE_LINE0": "0 ENVISAT",
    "TLE_LINE1": "1 27386U 02009A   23171.43530503  .00000240  00000-0  92482-4 0  9999",
    "TLE_LINE2": "2 27386  98.2308 141.3040 0001337  90.9717  78.5940 14.38361819116351",
    "OBJECT_ID": "2002-009A",
    "OBJECT_NUMBER": "27386",
    "SEMIMAJOR_AXIS": "7142.053",
    "PERIOD": "100.114",
    "APOGEE": "764.873",
    "PERIGEE": "762.963",
    "DECAYED": "0"
  },
  {
    "COMMENT": "GENERATED VIA SPACETRACK.ORG API",
    "ORIGINATOR": "18 SPCS",
    "NORAD_CAT_ID": "27386",
    "OBJECT_NAME": "ENVISAT",
    "OBJECT_TYPE": "PAYLOAD",
    "CLASSIFICATION_TYPE": "U",
    "INTLDES": "02009A",
    "EPOCH": "2023-06-20 21:35:54",
    "EPOCH_MICROSECONDS": "523104",
    "MEAN_MOTION": "14.38362119",
    "ECCENTRICITY": "0.0001337",
    "INCLINATION": "98.2307",
    "RA_OF_ASC_NODE": "141.7496",
    "ARG_OF_PERICENTER": "91.1373",
    "MEAN_ANOMALY": "322.9407",
    "EPHEMERIS_TYPE": "0",
    "ELEMENT_SET_NO": "999",
    "REV_AT_EPOCH": "11642",
    "BSTAR": "0.000093881",
    "MEAN_MOTION_DOT": "0.00000245",
    "MEAN_MOTION_DDOT": "0",
    "FILE": "3938544",
    "TLE_LINE0": "0 ENVISAT",
    "TLE_LINE1": "1 27386U 02009A   23171.89993661  .00000245  00000-0  93881-4 0  9996",
    "TLE_LINE2": "2 27386  98.2307 141.7496 0001337  91.1373 322.9407 14.38362119116426",
    "OBJECT_ID": "2002-009A",
    "OBJECT_NUMBER": "27386",
    "SEMIMAJOR_AXIS": "7142.052",
    "PERIOD": "100.114",
    "APOGEE": "764.872",
    "PERIGEE": "762.962",
    "DECAYED": "0"
  },
  {
    "COMMENT": "GENERATED VIA SPACETRACK.ORG API",
    "ORIGINATOR": "18 SPCS",
    "NORAD_CAT_ID": "27386",
    "OBJECT_NAME": "ENVISAT",
    "OBJECT_TYPE": "PAYLOAD",
    "CLASSIFICATION_TYPE": "U",
    "INTLDES": "02009A",
    "EPOCH": "2023-06-20 23:13:24",
    "EPOCH_MICROSECONDS": "763008",
    "MEAN_MOTION": "14.38362158",
    "ECCENTRICITY": "0.0001336",
    "INCLINATION": "98.2307",
    "RA_OF_ASC_NODE": "141.8145",
    "ARG_OF_PERICENTER": "91.0919",
    "MEAN_ANOMALY": "313.3976",
    "EPHEMERIS_TYPE": "0",
    "ELEMENT_SET_NO": "999",
    "REV_AT_EPOCH": "11650",
    "BSTAR": "0.000093636",
    "MEAN_MOTION_DOT": "0.00000244",
    "MEAN_MOTION_DDOT": "0",
    "FILE": "3938618",
    "TLE_LINE0": "0 ENVISAT",
    "TLE_LINE1": "1 27386U 02009A   23171.96764772  .00000244  00000-0  93636-4 0  9990",
    "TLE_LINE2": "2 27386  98.2307 141.8145 0001336  91.0919 313.3976 14.38362158116509",
    "OBJECT_ID": "2002-009A",
    "OBJECT_NUMBER": "27386",
    "SEMIMAJOR_AXIS": "7142.052",
    "PERIOD": "100.114",
    "APOGEE": "764.871",
    "PERIGEE": "762.963",
    "DECAYED": "0"
  },
  {
    "COMMENT": "GENERATED VIA SPACETRACK.ORG API",
    "ORIGINATOR": "18 SPCS",
    "NORAD_CAT_ID": "27386",
    "OBJECT_NAME": "ENVISAT",
    "OBJECT_TYPE": "PAYLOAD",
    "CLASSIFICATION_TYPE": "U",
    "INTLDES": "02009A",
    "EPOCH": "2023-06-21 12:53:15",
    "EPOCH_MICROSECONDS": "148032",
    "MEAN_MOTION": "14.38362548",
    "ECCENTRICITY": "0.0001344",
    "INCLINATION": "98.2308",
    "RA_OF_ASC_NODE": "142.3605",
    "ARG_OF_PERICENTER": "91.0408",
    "MEAN_ANOMALY": "19.8024",
    "EPHEMERIS_TYPE": "0",
    "ELEMENT_SET_NO": "999",
    "REV_AT_EPOCH": "11658",
    "BSTAR": "0.000096759",
    "MEAN_MOTION_DOT": "0.00000253",
    "MEAN_MOTION_DDOT": "0",
    "FILE": "3938993",
    "TLE_LINE0": "0 ENVISAT",
    "TLE_LINE1": "1 27386U 02009A   23172.53698088  .00000253  00000-0  96759-4 0  9999",
    "TLE_LINE2": "2 27386  98.2308 142.3605 0001344  91.0408  19.8024 14.38362548116582",
    "OBJECT_ID": "2002-009A",
    "OBJECT_NUMBER": "27386",
    "SEMIMAJOR_AXIS": "7142.051",
    "PERIOD": "100.114",
    "APOGEE": "764.876",
    "PERIGEE": "762.956",
    "DECAYED": "0"
  },
  {
    "COMMENT": "GENERATED VIA SPACETRACK.ORG API",
    "ORIGINATOR": "18 SPCS",
    "NORAD_CAT_ID": "27386",
    "OBJECT_NAME": "ENVISAT",
    "OBJECT_TYPE": "PAYLOAD",
    "CLASSIFICATION_TYPE": "U",
    "INTLDES": "02009A",
    "EPOCH": "2023-06-21 12:53:15",
    "EPOCH_MICROSECONDS": "148032",
    "MEAN_MOTION": "14.38362548",
    "ECCENTRICITY": "0.0001344",
    "INCLINATION": "98.2308",
    "RA_OF_ASC_NODE": "142.3605",
    "ARG_OF_PERICENTER": "91.0408",
    "MEAN_ANOMALY": "19.8024",
    "EPHEMERIS_TYPE": "0",
    "ELEMENT_SET_NO": "999",
    "REV_AT_EPOCH": "11651",
    "BSTAR": "0.000096759",
    "MEAN_MOTION_DOT": "0.00000253",
    "MEAN_MOTION_DDOT": "0",
    "FILE": "3939133",
    "TLE_LINE0": "0 ENVISAT",
    "TLE_LINE1": "1 27386U 02009A   23172.53698088  .00000253  00000-0  96759-4 0  9999",
    "TLE_LINE2": "2 27386  98.2308 142.3605 0001344  91.0408  19.8024 14.38362548116515",
    "OBJECT_ID": "2002-009A",
    "OBJECT_NUMBER": "27386",
    "SEMIMAJOR_AXIS": "7142.051",
    "PERIOD": "100.114",
    "APOGEE": "764.876",
    "PERIGEE": "762.956",
    "DECAYED": "0"
  },
  {
    "COMMENT": "GENERATED VIA SPACETRACK.ORG API",
    "ORIGINATOR": "18 SPCS",
    "NORAD_CAT_ID": "27386",
    "OBJECT_NAME": "ENVISAT",
    "OBJECT_TYPE": "PAYLOAD",
    "CLASSIFICATION_TYPE": "U",
    "INTLDES": "02009A",
    "EPOCH": "2023-06-21 16:31:07",
    "EPOCH_MICROSECONDS": "177728",
    "MEAN_MOTION": "14.3836259",
    "ECCENTRICITY": "0.0001343",
    "INCLINATION": "98.2308",
    "RA_OF_ASC_NODE": "142.5056",
    "ARG_OF_PERICENTER": "91.0508",
    "MEAN_ANOMALY": "82.7671",
    "EPHEMERIS_TYPE": "0",
    "ELEMENT_SET_NO": "999",
    "REV_AT_EPOCH": "11660",
    "BSTAR": "0.000094873",
    "MEAN_MOTION_DOT": "0.00000248",
    "MEAN_MOTION_DDOT": "0",
    "FILE": "3939266",
    "TLE_LINE0": "0 ENVISAT",
    "TLE_LINE1": "1 27386U 02009A   23172.68827752  .00000248  00000-0  94873-4 0  9996",
    "TLE_LINE2": "2 27386  98.2308 142.5056 0001343  91.0508  82.7671 14.38362590116601",
    "OBJECT_ID": "2002-009A",
    "OBJECT_NUMBER": "27386",
    "SEMIMAJOR_AXIS": "7142.051",
    "PERIOD": "100.114",
    "APOGEE": "764.875",
    "PERIGEE": "762.956",
    "DECAYED": "0"
  }
]